STARLINK-2109           
1 47388U 21005AR  24226.10505593  .00110968  00000+0  73447-2 0  9993
2 47388  53.0528 116.5388 0001425 118.2597 241.8536 15.06438736197540
STARLINK-2110           
1 47389U 21005AS  24225.95116845  .00031919  00000+0  21523-2 0  9990
2 47389  53.0542  97.2229 0001256 100.2074 259.9057 15.06395269196842
STARLINK-2111           
1 47390U 21005AT  24226.07924816  .00008090  00000+0  56122-3 0  9999
2 47390  53.0552 116.6589 0001488 128.0619 232.0505 15.06412231196580
STARLINK-2112           
1 47391U 21005AU  24225.95576130  .00062340  00000+0  41651-2 0  9996
2 47391  53.0534  87.2071 0001327 109.7051 250.4081 15.06419051197590
STARLINK-2113           
1 47392U 21005AV  24225.89037269  .00061589  00000+0  41157-2 0  9990
2 47392  53.0536  87.5005 0001471  68.8982 291.2164 15.06417726196974
STARLINK-2114           
1 47393U 21005AW  24225.98300872  .00017498  00000+0  11904-2 0  9991
2 47393  53.0545  62.4478 0001893 115.4182 244.7003 15.06407949197332
STARLINK-2115           
1 47394U 21005AX  24225.64941088  .00024705  00000+0  16715-2 0  9999
2 47394  53.0549  83.7509 0001908  88.1319 271.9889 15.06402815197019
STARLINK-2117           
1 47395U 21005AY  24225.86917491  .00054606  00000+0  36558-2 0  9995
2 47395  53.0539  77.5959 0001190  64.9299 295.1813 15.06407498197119
STARLINK-2119           
1 47397U 21005BA  24226.10874926  .00028268  00000+0  19077-2 0  9992
2 47397  53.0530 116.5220 0002225  94.9765 265.1478 15.06425625196595
STARLINK-2120           
1 47398U 21005BB  24225.94933119  .00035137  00000+0  23653-2 0  9992
2 47398  53.0545  87.2371 0001468 108.3036 251.8113 15.06412178197590
STARLINK-2121           
1 47399U 21005BC  24225.91896146  .00069472  00000+0  46360-2 0  9997
2 47399  53.0533  97.6148 0001536  60.7599 299.3543 15.06408911196836
STARLINK-2122           
1 47400U 21005BD  24225.88022759  .00027570  00000+0  18610-2 0  9997
2 47400  53.0535  77.5589 0001402 104.8163 255.2981 15.06430685197118
STARLINK-2123           
1 47401U 21005BE  24225.96408202  .00033156  00000+0  22333-2 0  9992
2 47401  53.0555  87.1693 0000391  89.8529 270.2505 15.06417582197602
STARLINK-2124           
1 47402U 21005BF  24225.98252338  .00062661  00000+0  41849-2 0  9998
2 47402  53.0539  87.0888 0001485  79.1553 280.9603 15.06430665197608
STARLINK-2127           
1 47403U 21005BG  24225.92353715  .00008639  00000+0  59800-3 0  9996
2 47403  53.0546  87.3511 0001411  70.4635 289.6507 15.06407645196988
STARLINK-2128           
1 47404U 21005BH  24225.91984082  .00021574  00000+0  14621-2 0  9997
2 47404  53.0538  87.3695 0001232  86.4585 273.6545 15.06418386196984
STARLINK-2130           
1 47405U 21005BJ  24226.16773291  .00011501  00000+0  79053-3 0  9994
2 47405  53.0525 116.2636 0002078 105.9866 254.1352 15.06363793196594
STARLINK-2133           
1 47406U 21005BK  24226.06359558  .00067424  00000+0  44993-2 0  9999
2 47406  53.0545  86.7284 0001232 110.0906 250.0216 15.06424575197625
STARLINK-2134           
1 47407U 21005BL  24226.00463206  .00022462  00000+0  15226-2 0  9990
2 47407  53.0521  86.9932 0001593  96.2577 263.8594 15.06386536197604
STARLINK-2135           
1 47408U 21005BM  24226.04148075  .00001731  00000+0  13506-3 0  9995
2 47408  53.0548  86.8221 0001379  91.2880 268.8267 15.06399010197612
STARLINK-1782           
1 47548U 21009A   24225.84797959  .00016652  00000+0  11337-2 0  9999
2 47548  53.0559  67.6909 0001617  79.3391 280.7780 15.06414422195041
STARLINK-1806           
1 47549U 21009B   24225.91063316  .00056834  00000+0  38020-2 0  9995
2 47549  53.0541  67.4090 0001481 107.1508 252.9643 15.06417125194457
STARLINK-1909           
1 47550U 21009C   24225.92262318  .00033439  00000+0  22534-2 0  9990
2 47550  53.0532  57.3593 0002708  79.0113 281.1181 15.06394532194599
STARLINK-1938           
1 47551U 21009D   24225.98344091  .00052063  00000+0  34872-2 0  9998
2 47551  53.0544  77.0894 0001854  70.0752 290.0436 15.06412598194930
STARLINK-1940           
1 47552U 21009E   24225.85534441  .00019604  00000+0  13318-2 0  9991
2 47552  53.0559  67.6575 0001157  60.6639 299.4465 15.06386759195051
STARLINK-1953           
1 47554U 21009G   24225.99356139  .00067724  00000+0  45198-2 0  9991
2 47554  53.0537  87.0390 0001368 109.0316 251.0821 15.06418519194794
STARLINK-1954           
1 47555U 21009H   24225.90234623  .00021976  00000+0  14893-2 0  9993
2 47555  53.0536  77.4510 0001599  87.8425 272.2747 15.06407554194925
STARLINK-1955           
1 47556U 21009J   24226.07004291  .00033807  00000+0  22773-2 0  9991
2 47556  53.0564  96.6975 0000954  94.8933 265.2165 15.06405564194656
STARLINK-1956           
1 47557U 21009K   24225.90050851  .00012443  00000+0  85278-3 0  9999
2 47557  53.0548  97.4599 0001451  85.5557 274.5597 15.06399665194030
STARLINK-1957           
1 47558U 21009L   24226.08018909  .00026823  00000+0  18125-2 0  9991
2 47558  53.0550  66.6551 0001363  75.1401 284.9738 15.06406210195088
STARLINK-1958           
1 47559U 21009M   24225.97790204  .00053086  00000+0  35552-2 0  9998
2 47559  53.0549  57.1131 0001094  68.2501 291.8605 15.06409184195219
STARLINK-1959           
1 47560U 21009N   24225.83688574  .00022544  00000+0  15271-2 0  9992
2 47560  53.0549  57.7319 0000890 305.1220  54.9685 15.06409446194585
STARLINK-1960           
1 47561U 21009P   24225.62590155  .00000629  00000+0  61133-4 0  9997
2 47561  53.0542  78.6869 0001667  94.6138 265.5041 15.06381262194279
STARLINK-1961           
1 47562U 21009Q   24225.30890781  .00011180  00000+0  76819-3 0  9991
2 47562  53.0548  80.1141 0003315  72.9180 287.2172 15.06402996194224
STARLINK-1962           
1 47563U 21009R   24225.86180057  .00057043  00000+0  38172-2 0  9998
2 47563  53.0542  77.6304 0001660  71.8324 288.2846 15.06403654194917
STARLINK-1963           
1 47564U 21009S   24225.86271296  .00037768  00000+0  25408-2 0  9995
2 47564  53.0568  67.6302 0001872 111.0569 249.0620 15.06400210194444
STARLINK-1964           
1 47565U 21009T   24225.85902779  .00039157  00000+0  26328-2 0  9998
2 47565  53.0568  67.6438 0002022 107.7862 252.3348 15.06403601195050
STARLINK-1965           
1 47566U 21009U   24225.98527483  .00055060  00000+0  36854-2 0  9994
2 47566  53.0546  57.0803 0001305  77.4346 282.6789 15.06411797195217
STARLINK-1966           
1 47567U 21009V   24225.95579887  .00004225  00000+0  30242-3 0  9990
2 47567  53.0549  97.2161 0001573  92.2977 267.8192 15.06396642194039
STARLINK-1967           
1 47568U 21009W   24226.04794959  .00079821  00000+0  53176-2 0  9995
2 47568  53.0539  96.7975 0001530 116.7441 243.3705 15.06398157194668
STARLINK-1969           
1 47570U 21009Y   24225.91667824  .00420956  00000+0  32440-2 0  9993
2 47570  53.0483  13.0952 0003006 275.3934 286.1751 15.70166521  5975
STARLINK-1970           
1 47571U 21009Z   24225.85166377  .00031976  00000+0  21559-2 0  9993
2 47571  53.0553  67.6737 0000551 109.4014 250.7034 15.06398796195058
STARLINK-1971           
1 47572U 21009AA  24225.89957027  .00022647  00000+0  15337-2 0  9990
2 47572  53.0524  67.4616 0001752  99.6803 260.4384 15.06416022194453
STARLINK-1975           
1 47573U 21009AB  24225.94380997  .00006551  00000+0  45849-3 0  9991
2 47573  53.0557  67.2697 0002037  77.2710 282.8506 15.06383646195059
STARLINK-1976           
1 47574U 21009AC  24226.09218347  .00016656  00000+0  11341-2 0  9994
2 47574  53.0535  96.5942 0001813  74.6653 285.4536 15.06410801194653
STARLINK-1977           
1 47575U 21009AD  24226.01475328 -.00006089  00000+0 -39033-3 0  9991
2 47575  53.0553  96.9440 0001555  70.7128 289.4029 15.06390492194641
STARLINK-1978           
1 47576U 21009AE  24225.98158591  .00053280  00000+0  35684-2 0  9997
2 47576  53.0547  57.0969 0001417  82.6326 277.4824 15.06404996195217
STARLINK-1979           
1 47577U 21009AF  24226.02259641  .00060919  00000+0  40721-2 0  9997
2 47577  53.0543  71.9134 0001579  74.2099 285.9064 15.06412519195003
STARLINK-1980           
1 47578U 21009AG  24226.21565289  .00016595  00000+0  11296-2 0  9993
2 47578  53.0552  76.0432 0001442 120.7620 239.3511 15.06425368194967
STARLINK-1981           
1 47579U 21009AH  24225.99910726  .00020035  00000+0  13603-2 0  9996
2 47579  53.0540  67.0137 0001638 103.8118 256.3054 15.06393559195078
STARLINK-1982           
1 47580U 21009AJ  24225.62221672  .00008413  00000+0  58303-3 0  9996
2 47580  53.0557  78.7077 0002700  81.1470 278.9824 15.06397454194263
STARLINK-1984           
1 47581U 21009AK  24226.25001157  .00222840  00000+0  36643-2 0  9995
2 47581  53.0528  30.3795 0000596  19.2959 308.3979 15.51081029195604
STARLINK-1986           
1 47582U 21009AL  24225.98712621  .00061705  00000+0  41238-2 0  9997
2 47582  53.0543  77.0723 0001496  64.1810 295.9333 15.06413814194926
STARLINK-1987           
1 47583U 21009AM  24226.03133970  .00024572  00000+0  16622-2 0  9999
2 47583  53.0542  76.8726 0001364  82.8735 277.2409 15.06412198194946
STARLINK-1989           
1 47585U 21009AP  24225.85813047  .00060331  00000+0  40323-2 0  9998
2 47585  53.0546  77.6445 0000823 111.2679 248.8398 15.06421846194910
STARLINK-1990           
1 47586U 21009AQ  24225.90784393  .00060051  00000+0  40105-2 0  9993
2 47586  53.0533  97.4245 0001307 111.7088 248.4040 15.06452811194031
STARLINK-1991           
1 47587U 21009AR  24225.96960723  .00038414  00000+0  25835-2 0  9994
2 47587  53.0539  67.1435 0001796 108.5469 251.5715 15.06403150195073
STARLINK-1993           
1 47588U 21009AS  24226.02766646  .00000701  00000+0  65991-4 0  9998
2 47588  53.0544  76.8862 0002172  80.0758 280.0476 15.06391795194942
STARLINK-1994           
1 47589U 21009AT  24225.84703975  .00030051  00000+0  20252-2 0  9994
2 47589  53.0538  77.6996 0002239  79.9404 280.1837 15.06445719194917
